{"type": "FeatureCollection", "features": [ {"type": "Feature", "properties": {"norad_id": 67083, "name": "STARLINK-36170", "group": "last-30-days", "lat": -60.731954436220825, "lon": 166.1236734781899, "alt_km": 362.0527866634038, "timestamp": "2025-12-27T23:26:36.076184+00:00", "meta": {"OBJECT_NAME": "STARLINK-36170", "OBJECT_ID": "2025-298J", "EPOCH": "2025-12-27T12:00:02.000160", "MEAN_MOTION": 15.72231131, "ECCENTRICITY": 0.000334, "INCLINATION": 69.9995, "RA_OF_ASC_NODE": 208.0023, "ARG_OF_PERICENTER": 271.6978, "MEAN_ANOMALY": 203.8649, "EPHEMERIS_TYPE": 0, "CLASSIFICATION_TYPE": "U", "NORAD_CAT_ID": 67083, "ELEMENT_SET_NO": 999, "REV_AT_EPOCH": 335, "BSTAR": -0.01425, "MEAN_MOTION_DOT": -0.01671605, "MEAN_MOTION_DDOT": 0}, "tle": {"line1": "1 67083U 25298J   25361.50002315 -.01671605  00000+0 -14250-1 0  9993", "line2": "2 67083  69.9995 208.0023 0003340 271.6978 203.8649 15.72231131  3357"}}, "geometry": {"type": "Point", "coordinates": [166.1236734781899, -60.731954436220825]}}, {"type": "Feature", "properties": {"norad_id": 67084, "name": "STARLINK-36166", "group": "last-30-days", "lat": -59.29961702533228, "lon": 168.81853253018014, "alt_km": 362.0480788226587, "timestamp": "2025-12-27T23:26:36.076194+00:00", "meta": {"OBJECT_NAME": "STARLINK-36166", "OBJECT_ID": "2025-298K", "EPOCH": "2025-12-27T12:00:02.000160", "MEAN_MOTION": 15.72229423, "ECCENTRICITY": 0.0003371, "INCLINATION": 69.9998, "RA_OF_ASC_NODE": 207.9997, "ARG_OF_PERICENTER": 271.7483, "MEAN_ANOMALY": 205.7891, "EPHEMERIS_TYPE": 0, "CLASSIFICATION_TYPE": "U", "NORAD_CAT_ID": 67084, "ELEMENT_SET_NO": 999, "REV_AT_EPOCH": 329, "BSTAR": -0.014273, "MEAN_MOTION_DOT": -0.01673859, "MEAN_MOTION_DDOT": 0}, "tle": {"line1": "1 67084U 25298K   25361.50002315 -.01673859  00000+0 -14273-1 0  9992", "line2": "2 67084  69.9998 207.9997 0003371 271.7483 205.7891 15.72229423  3299"}}, "geometry": {"type": "Point", "coordinates": [168.81853253018014, -59.29961702533228]}}, {"type": "Feature", "properties": {"norad_id": 67085, "name": "STARLINK-35794", "group": "last-30-days", "lat": -57.82855745619516, "lon": 171.27177025000879, "alt_km": 362.04976178997185, "timestamp": "2025-12-27T23:26:36.076203+00:00", "meta": {"OBJECT_NAME": "STARLINK-35794", "OBJECT_ID": "2025-298L", "EPOCH": "2025-12-27T12:00:02.000160", "MEAN_MOTION": 15.72227871, "ECCENTRICITY": 0.0003399, "INCLINATION": 69.9998, "RA_OF_ASC_NODE": 207.9975, "ARG_OF_PERICENTER": 271.6206, "MEAN_ANOMALY": 207.8751, "EPHEMERIS_TYPE": 0, "CLASSIFICATION_TYPE": "U", "NORAD_CAT_ID": 67085, "ELEMENT_SET_NO": 999, "REV_AT_EPOCH": 335, "BSTAR": -0.014302, "MEAN_MOTION_DOT": -0.01676836, "MEAN_MOTION_DDOT": 0}, "tle": {"line1": "1 67085U 25298L   25361.50002315 -.01676836  00000+0 -14302-1 0  9994", "line2": "2 67085  69.9998 207.9975 0003399 271.6206 207.8751 15.72227871  3358"}}, "geometry": {"type": "Point", "coordinates": [171.27177025000879, -57.82855745619516]}}, {"type": "Feature", "properties": {"norad_id": 67086, "name": "STARLINK-35841", "group": "last-30-days", "lat": -56.206468040268966, "lon": 173.68011414033268, "alt_km": 362.12518864877165, "timestamp": "2025-12-27T23:26:36.076215+00:00", "meta": {"OBJECT_NAME": "STARLINK-35841", "OBJECT_ID": "2025-298M", "EPOCH": "2025-12-27T12:00:02.000160", "MEAN_MOTION": 15.72222298, "ECCENTRICITY": 0.0003365, "INCLINATION": 69.9997, "RA_OF_ASC_NODE": 207.9947, "ARG_OF_PERICENTER": 270.7219, "MEAN_ANOMALY": 210.8778, "EPHEMERIS_TYPE": 0, "CLASSIFICATION_TYPE": "U", "NORAD_CAT_ID": 67086, "ELEMENT_SET_NO": 999, "REV_AT_EPOCH": 335, "BSTAR": -0.014359, "MEAN_MOTION_DOT": -0.01682328, "MEAN_MOTION_DDOT": 0}, "tle": {"line1": "1 67086U 25298M   25361.50002315 -.01682328  00000+0 -14359-1 0  9990", "line2": "2 67086  69.9997 207.9947 0003365 270.7219 210.8778 15.72222298  3355"}}, "geometry": {"type": "Point", "coordinates": [173.68011414033268, -56.206468040268966]}}, {"type": "Feature", "properties": {"norad_id": 67087, "name": "STARLINK-35842", "group": "last-30-days", "lat": -67.27827194692718, "lon": 87.13430320755823, "alt_km": 379.18419114465814, "timestamp": "2025-12-27T23:26:36.076227+00:00", "meta": {"OBJECT_NAME": "STARLINK-35842", "OBJECT_ID": "2025-298N", "EPOCH": "2025-12-27T12:00:02.000160", "MEAN_MOTION": 15.67031349, "ECCENTRICITY": 0.00035, "INCLINATION": 69.9998, "RA_OF_ASC_NODE": 208.0288, "ARG_OF_PERICENTER": 270.188, "MEAN_ANOMALY": 182.1508, "EPHEMERIS_TYPE": 0, "CLASSIFICATION_TYPE": "U", "NORAD_CAT_ID": 67087, "ELEMENT_SET_NO": 999, "REV_AT_EPOCH": 335, "BSTAR": -0.026254, "MEAN_MOTION_DOT": -0.02458514, "MEAN_MOTION_DDOT": 0}, "tle": {"line1": "1 67087U 25298N   25361.50002315 -.02458514  00000+0 -26254-1 0  9997", "line2": "2 67087  69.9998 208.0288 0003500 270.1880 182.1508 15.67031349  3357"}}, "geometry": {"type": "Point", "coordinates": [87.13430320755823, -67.27827194692718]}}, {"type": "Feature", "properties": {"norad_id": 67088, "name": "STARLINK-35882", "group": "last-30-days", "lat": -53.0693618903742, "lon": 177.66295930114023, "alt_km": 362.3205672439226, "timestamp": "2025-12-27T23:26:36.076237+00:00", "meta": {"OBJECT_NAME": "STARLINK-35882", "OBJECT_ID": "2025-298P", "EPOCH": "2025-12-27T12:00:02.000160", "MEAN_MOTION": 15.72233547, "ECCENTRICITY": 0.0003213, "INCLINATION": 69.9998, "RA_OF_ASC_NODE": 207.9905, "ARG_OF_PERICENTER": 269.8241, "MEAN_ANOMALY": 215.6897, "EPHEMERIS_TYPE": 0, "CLASSIFICATION_TYPE": "U", "NORAD_CAT_ID": 67088, "ELEMENT_SET_NO": 999, "REV_AT_EPOCH": 335, "BSTAR": -0.014689, "MEAN_MOTION_DOT": -0.01716993, "MEAN_MOTION_DDOT": 0}, "tle": {"line1": "1 67088U 25298P   25361.50002315 -.01716993  00000+0 -14689-1 0  9994", "line2": "2 67088  69.9998 207.9905 0003213 269.8241 215.6897 15.72233547  3352"}}, "geometry": {"type": "Point", "coordinates": [177.66295930114023, -53.0693618903742]}}, {"type": "Feature", "properties": {"norad_id": 67089, "name": "STARLINK-35763", "group": "last-30-days", "lat": -51.35223540670352, "lon": 179.54750123852017, "alt_km": 362.2013335973088, "timestamp": "2025-12-27T23:26:36.076247+00:00", "meta": {"OBJECT_NAME": "STARLINK-35763", "OBJECT_ID": "2025-298Q", "EPOCH": "2025-12-27T12:00:02.000160", "MEAN_MOTION": 15.72206687, "ECCENTRICITY": 0.0003253, "INCLINATION": 69.9995, "RA_OF_ASC_NODE": 207.9873, "ARG_OF_PERICENTER": 271.6748, "MEAN_ANOMALY": 215.9201, "EPHEMERIS_TYPE": 0, "CLASSIFICATION_TYPE": "U", "NORAD_CAT_ID": 67089, "ELEMENT_SET_NO": 999, "REV_AT_EPOCH": 335, "BSTAR": -0.014329, "MEAN_MOTION_DOT": -0.01678103, "MEAN_MOTION_DDOT": 0}, "tle": {"line1": "1 67089U 25298Q   25361.50002315 -.01678103  00000+0 -14329-1 0  9996", "line2": "2 67089  69.9995 207.9873 0003253 271.6748 215.9201 15.72206687  3358"}}, "geometry": {"type": "Point", "coordinates": [179.54750123852017, -51.35223540670352]}}, {"type": "Feature", "properties": {"norad_id": 67090, "name": "STARLINK-36060", "group": "last-30-days", "lat": -49.76805897716165, "lon": -178.8596646886876, "alt_km": 362.3933201987247, "timestamp": "2025-12-27T23:26:36.076257+00:00", "meta": {"OBJECT_NAME": "STARLINK-36060", "OBJECT_ID": "2025-298R", "EPOCH": "2025-12-27T12:00:02.000160", "MEAN_MOTION": 15.72203845, "ECCENTRICITY": 0.0003351, "INCLINATION": 69.9994, "RA_OF_ASC_NODE": 207.9847, "ARG_OF_PERICENTER": 268.378, "MEAN_ANOMALY": 221.1516, "EPHEMERIS_TYPE": 0, "CLASSIFICATION_TYPE": "U", "NORAD_CAT_ID": 67090, "ELEMENT_SET_NO": 999, "REV_AT_EPOCH": 329, "BSTAR": -0.014811, "MEAN_MOTION_DOT": -0.01727754, "MEAN_MOTION_DDOT": 0}, "tle": {"line1": "1 67090U 25298R   25361.50002315 -.01727754  00000+0 -14811-1 0  9991", "line2": "2 67090  69.9994 207.9847 0003351 268.3780 221.1516 15.72203845  3292"}}, "geometry": {"type": "Point", "coordinates": [-178.8596646886876, -49.76805897716165]}}, {"type": "Feature", "properties": {"norad_id": 67091, "name": "STARLINK-36097", "group": "last-30-days", "lat": -48.02006359875618, "lon": -177.23912955351673, "alt_km": 362.22547321382626, "timestamp": "2025-12-27T23:26:36.076266+00:00", "meta": {"OBJECT_NAME": "STARLINK-36097", "OBJECT_ID": "2025-298S", "EPOCH": "2025-12-27T12:00:02.000160", "MEAN_MOTION": 15.72199205, "ECCENTRICITY": 0.0003285, "INCLINATION": 69.9998, "RA_OF_ASC_NODE": 207.9828, "ARG_OF_PERICENTER": 270.0749, "MEAN_ANOMALY": 221.4636, "EPHEMERIS_TYPE": 0, "CLASSIFICATION_TYPE": "U", "NORAD_CAT_ID": 67091, "ELEMENT_SET_NO": 999, "REV_AT_EPOCH": 335, "BSTAR": -0.014321, "MEAN_MOTION_DOT": -0.01676815, "MEAN_MOTION_DDOT": 0}, "tle": {"line1": "1 67091U 25298S   25361.50002315 -.01676815  00000+0 -14321-1 0  9999", "line2": "2 67091  69.9998 207.9828 0003285 270.0749 221.4636 15.72199205  3354"}}, "geometry": {"type": "Point", "coordinates": [-177.23912955351673, -48.02006359875618]}}, {"type": "Feature", "properties": {"norad_id": 67092, "name": "STARLINK-35792", "group": "last-30-days", "lat": -46.39409604753454, "lon": -175.84492687182785, "alt_km": 362.1242473286047, "timestamp": "2025-12-27T23:26:36.076278+00:00", "meta": {"OBJECT_NAME": "STARLINK-35792", "OBJECT_ID": "2025-298T", "EPOCH": "2025-12-27T12:00:02.000160", "MEAN_MOTION": 15.72202405, "ECCENTRICITY": 0.0003412, "INCLINATION": 69.9998, "RA_OF_ASC_NODE": 207.9806, "ARG_OF_PERICENTER": 270.7383, "MEAN_ANOMALY": 222.6795, "EPHEMERIS_TYPE": 0, "CLASSIFICATION_TYPE": "U", "NORAD_CAT_ID": 67092, "ELEMENT_SET_NO": 999, "REV_AT_EPOCH": 329, "BSTAR": -0.014326, "MEAN_MOTION_DOT": -0.01677685, "MEAN_MOTION_DDOT": 0}, "tle": {"line1": "1 67092U 25298T   25361.50002315 -.01677685  00000+0 -14326-1 0  9991", "line2": "2 67092  69.9998 207.9806 0003412 270.7383 222.6795 15.72202405  3293"}}, "geometry": {"type": "Point", "coordinates": [-175.84492687182785, -46.39409604753454]}}]}